STARLINK-36972
1 68072U 26042D   26090.83335647 -.01816413  00000+0 -12246-1 0  9994
2 68072  53.1583  83.7915 0000748 106.6338 315.9138 15.77467560  5619
